[{"OBJECT_NAME":"STARLINK-36673","OBJECT_ID":"2026-022N","EPOCH":"2026-03-09T22:00:01.999584","MEAN_MOTION":15.68090398,"ECCENTRICITY":0.00015368,"INCLINATION":97.2847,"RA_OF_ASC_NODE":102.9137,"ARG_OF_PERICENTER":67.9373,"MEAN_ANOMALY":350.2216,"EPHEMERIS_TYPE":0,"CLASSIFICATION_TYPE":"U","NORAD_CAT_ID":67660,"ELEMENT_SET_NO":999,"REV_AT_EPOCH":608,"BSTAR":-0.019532863,"MEAN_MOTION_DOT":-0.0191887,"MEAN_MOTION_DDOT":0},{"OBJECT_NAME":"COSMOS 1707","OBJECT_ID":"1985-113A","EPOCH":"2026-03-09T23:17:43.494720","MEAN_MOTION":15.66907468,"ECCENTRICITY":0.00026545,"INCLINATION":82.4858,"RA_OF_ASC_NODE":273.4517,"ARG_OF_PERICENTER":322.7581,"MEAN_ANOMALY":37.3495,"EPHEMERIS_TYPE":0,"CLASSIFICATION_TYPE":"U","NORAD_CAT_ID":16326,"ELEMENT_SET_NO":999,"REV_AT_EPOCH":20186,"BSTAR":0.00049906246,"MEAN_MOTION_DOT":0.0005306,"MEAN_MOTION_DDOT":0}]
